CTC1_L_00545016-05
1 28039U 24091TT  26070.40840278  .00000000  00000+0  00000-0 0  9995
2 28039  97.1000 180.0000 0000000   0.0000 270.0000 15.48880433    14
CTC1_L_00545016-06
1 28040U 24624AR  26070.40840278  .00000000  00000+0  00000-0 0  9999
2 28040  97.1000 180.0000 0000000   0.0000 315.0000 15.48880433    16
CTC1_L_00545016-07
1 28041U 23302TH  26070.40840278  .00000000  00000+0  00000-0 0  9992
2 28041  97.1000 180.0000 0000000   0.0000   0.0000 15.48880433    18
CTC1_L_00545016-08
1 28042U 25046GB  26070.40840278  .00000000  00000+0  00000-0 0  9990
2 28042  97.1000 180.0000 0000000   0.0000  45.0000 15.48880433    18
CTC1_L_00545017-01
1 28043U 25995GO  26070.40840278  .00000000  00000+0  00000-0 0  9994
2 28043  97.1000 192.0000 0000000   0.0000  96.0000 15.48880433    18
CTC1_L_00545017-02
1 28044U 25210GL  26070.40840278  .00000000  00000+0  00000-0 0  9995
2 28044  97.1000 192.0000 0000000   0.0000 141.0000 15.48880433    10
CTC1_L_00545017-03
1 28045U 22779RT  26070.40840278  .00000000  00000+0  00000-0 0  9993
2 28045  97.1000 192.0000 0000000   0.0000 186.0000 15.48880433    10
CTC1_L_00545017-04
1 28046U 24997GU  26070.40840278  .00000000  00000+0  00000-0 0  9998
2 28046  97.1000 192.0000 0000000   0.0000 231.0000 15.48880433    12
CTC1_L_00545017-05
1 28047U 24671YI  26070.40840278  .00000000  00000+0  00000-0 0  9998
2 28047  97.1000 192.0000 0000000   0.0000 276.0000 15.48880433    12
CTC1_L_00545017-06
1 28048U 24033ZY  26070.40840278  .00000000  00000+0  00000-0 0  9991
2 28048  97.1000 192.0000 0000000   0.0000 321.0000 15.48880433    14
CTC1_L_00545017-07
1 28049U 22724XK  26070.40840278  .00000000  00000+0  00000-0 0  9997
2 28049  97.1000 192.0000 0000000   0.0000   6.0000 15.48880433    15
CTC1_L_00545017-08
1 28050U 22818Z   26070.40840278  .00000000  00000+0  00000-0 0  9993
2 28050  97.1000 192.0000 0000000   0.0000  51.0000 15.48880433    17
CTC1_L_00545018-01
1 28051U 26089KN  26070.40840278  .00000000  00000+0  00000-0 0  9998
2 28051  97.1000 204.0000 0000000   0.0000 102.0000 15.48880433    19
CTC1_L_00545018-02
1 28052U 22574GL  26070.40840278  .00000000  00000+0  00000-0 0  9994
2 28052  97.1000 204.0000 0000000   0.0000 147.0000 15.48880433    19
CTC1_L_00545018-03
1 28053U 26756ZI  26070.40840278  .00000000  00000+0  00000-0 0  9991
2 28053  97.1000 204.0000 0000000   0.0000 192.0000 15.48880433    10
CTC1_L_00545018-04
1 28054U 22381JJ  26070.40840278  .00000000  00000+0  00000-0 0  9992
2 28054  97.1000 204.0000 0000000   0.0000 237.0000 15.48880433    11
CTC1_L_00545018-05
1 28055U 26176ZG  26070.40840278  .00000000  00000+0  00000-0 0  9999
2 28055  97.1000 204.0000 0000000   0.0000 282.0000 15.48880433    12
CTC1_L_00545018-06
1 28056U 24590CA  26070.40840278  .00000000  00000+0  00000-0 0  9998
2 28056  97.1000 204.0000 0000000   0.0000 327.0000 15.48880433    13
CTC1_L_00545018-07
1 28057U 25391ZP  26070.40840278  .00000000  00000+0  00000-0 0  9999
2 28057  97.1000 204.0000 0000000   0.0000  12.0000 15.48880433    15
CTC1_L_00545018-08
1 28058U 25272BS  26070.40840278  .00000000  00000+0  00000-0 0  9998
2 28058  97.1000 204.0000 0000000   0.0000  57.0000 15.48880433    15
CTC1_L_00545019-01
1 28059U 22705FS  26070.40840278  .00000000  00000+0  00000-0 0  9997
2 28059  97.1000 216.0000 0000000   0.0000 108.0000 15.48880433    16
CTC1_L_00545019-02
1 28060U 25389NE  26070.40840278  .00000000  00000+0  00000-0 0  9990
2 28060  97.1000 216.0000 0000000   0.0000 153.0000 15.48880433    18
CTC1_L_00545019-03
1 28061U 25162EN  26070.40840278  .00000000  00000+0  00000-0 0  9990
2 28061  97.1000 216.0000 0000000   0.0000 198.0000 15.48880433    18
CTC1_L_00545019-04
1 28062U 25476MR  26070.40840278  .00000000  00000+0  00000-0 0  9999
2 28062  97.1000 216.0000 0000000   0.0000 243.0000 15.48880433    10
CTC1_L_00545019-05
1 28063U 24168MK  26070.40840278  .00000000  00000+0  00000-0 0  9997
2 28063  97.1000 216.0000 0000000   0.0000 288.0000 15.48880433    10
CTC1_L_00545019-06
1 28064U 24146BY  26070.40840278  .00000000  00000+0  00000-0 0  9994
2 28064  97.1000 216.0000 0000000   0.0000 333.0000 15.48880433    12
CTC1_L_00545019-07
1 28065U 24875OR  26070.40840278  .00000000  00000+0  00000-0 0  9994
2 28065  97.1000 216.0000 0000000   0.0000  18.0000 15.48880433    13
CTC1_L_00545019-08
1 28066U 24216RU  26070.40840278  .00000000  00000+0  00000-0 0  9994
2 28066  97.1000 216.0000 0000000   0.0000  63.0000 15.48880433    14
CTC1_L_00545020-01
1 28067U 25452PT  26070.40840278  .00000000  00000+0  00000-0 0  9998
2 28067  97.1000 228.0000 0000000   0.0000 114.0000 15.48880433    15
CTC1_L_00545020-02
1 28068U 23832O   26070.40840278  .00000000  00000+0  00000-0 0  9999
2 28068  97.1000 228.0000 0000000   0.0000 159.0000 15.48880433    15
CTC1_L_00545020-03
1 28069U 26983YF  26070.40840278  .00000000  00000+0  00000-0 0  9990
2 28069  97.1000 228.0000 0000000   0.0000 204.0000 15.48880433    17
CTC1_L_00545020-04
1 28070U 24109DD  26070.40840278  .00000000  00000+0  00000-0 0  9990
2 28070  97.1000 228.0000 0000000   0.0000 249.0000 15.48880433    18
CTC1_L_00545020-05
1 28071U 25793KB  26070.40840278  .00000000  00000+0  00000-0 0  9991
2 28071  97.1000 228.0000 0000000   0.0000 294.0000 15.48880433    19
CTC1_L_00545020-06
1 28072U 25533DA  26070.40840278  .00000000  00000+0  00000-0 0  9994
2 28072  97.1000 228.0000 0000000   0.0000 339.0000 15.48880433    10
CTC1_L_00545020-07
1 28073U 24870ZD  26070.40840278  .00000000  00000+0  00000-0 0  9998
2 28073  97.1000 228.0000 0000000   0.0000  24.0000 15.48880433    12
CTC1_L_00545020-08
1 28074U 24781ZB  26070.40840278  .00000000  00000+0  00000-0 0  9990
2 28074  97.1000 228.0000 0000000   0.0000  69.0000 15.48880433    12
CTC1_L_00545021-01
1 28075U 22028BE  26070.40840278  .00000000  00000+0  00000-0 0  9993
2 28075  97.1000 240.0000 0000000   0.0000 120.0000 15.48880433    15
CTC1_L_00545021-02
1 28076U 26346PQ  26070.40840278  .00000000  00000+0  00000-0 0  9991
2 28076  97.1000 240.0000 0000000   0.0000 165.0000 15.48880433    15
CTC1_L_00545021-03
1 28077U 22480QL  26070.40840278  .00000000  00000+0  00000-0 0  9997
2 28077  97.1000 240.0000 0000000   0.0000 210.0000 15.48880433    17
CTC1_L_00545021-04
1 28078U 24628KS  26070.40840278  .00000000  00000+0  00000-0 0  9994
2 28078  97.1000 240.0000 0000000   0.0000 255.0000 15.48880433    17
CTC1_L_00545021-05
1 28079U 22266IR  26070.40840278  .00000000  00000+0  00000-0 0  9991
2 28079  97.1000 240.0000 0000000   0.0000 300.0000 15.48880433    19
CTC1_L_00545021-06
1 28080U 24692DC  26070.40840278  .00000000  00000+0  00000-0 0  9998
2 28080  97.1000 240.0000 0000000   0.0000 345.0000 15.48880433    10
CTC1_L_00545021-07
1 28081U 26182AN  26070.40840278  .00000000  00000+0  00000-0 0  9995
2 28081  97.1000 240.0000 0000000   0.0000  30.0000 15.48880433    12
CTC1_L_00545021-08
1 28082U 25369LF  26070.40840278  .00000000  00000+0  00000-0 0  9992
2 28082  97.1000 240.0000 0000000   0.0000  75.0000 15.48880433    12
CTC1_L_00545022-01
1 28083U 26184UU  26070.40840278  .00000000  00000+0  00000-0 0  9999
2 28083  97.1000 252.0000 0000000   0.0000 126.0000 15.48880433    13
CTC1_L_00545022-02
1 28084U 25354LT  26070.40840278  .00000000  00000+0  00000-0 0  9998
2 28084  97.1000 252.0000 0000000   0.0000 171.0000 15.48880433    14
CTC1_L_00545022-03
1 28085U 24179AP  26070.40840278  .00000000  00000+0  00000-0 0  9993
2 28085  97.1000 252.0000 0000000   0.0000 216.0000 15.48880433    15
CTC1_L_00545022-04
1 28086U 25408FL  26070.40840278  .00000000  00000+0  00000-0 0  9990
2 28086  97.1000 252.0000 0000000   0.0000 261.0000 15.48880433    16
CTC1_L_00545022-05
1 28087U 23184CF  26070.40840278  .00000000  00000+0  00000-0 0  9990
2 28087  97.1000 252.0000 0000000   0.0000 306.0000 15.48880433    17
CTC1_L_00545022-06
1 28088U 23522DQ  26070.40840278  .00000000  00000+0  00000-0 0  9997
2 28088  97.1000 252.0000 0000000   0.0000 351.0000 15.48880433    18
CTC1_L_00545022-07
1 28089U 24375OQ  26070.40840278  .00000000  00000+0  00000-0 0  9995
2 28089  97.1000 252.0000 0000000   0.0000  36.0000 15.48880433    19
CTC1_L_00545022-08
1 28090U 25491OC  26070.40840278  .00000000  00000+0  00000-0 0  9997
2 28090  97.1000 252.0000 0000000   0.0000  81.0000 15.48880433    11
CTC1_L_00545023-01
1 28091U 26812JB  26070.40840278  .00000000  00000+0  00000-0 0  9996
2 28091  97.1000 264.0000 0000000   0.0000 132.0000 15.48880433    12
CTC1_L_00545023-02
1 28092U 23466VB  26070.40840278  .00000000  00000+0  00000-0 0  9999
2 28092  97.1000 264.0000 0000000   0.0000 177.0000 15.48880433    12
CTC1_L_00545023-03
1 28093U 23263AL  26070.40840278  .00000000  00000+0  00000-0 0  9995
2 28093  97.1000 264.0000 0000000   0.0000 222.0000 15.48880433    14
CTC1_L_00545023-04
1 28094U 23529GC  26070.40840278  .00000000  00000+0  00000-0 0  9991
2 28094  97.1000 264.0000 0000000   0.0000 267.0000 15.48880433    14
CTC1_L_00545023-05
1 28095U 25218PE  26070.40840278  .00000000  00000+0  00000-0 0  9999
2 28095  97.1000 264.0000 0000000   0.0000 312.0000 15.48880433    16
CTC1_L_00545023-06
1 28096U 23859FM  26070.40840278  .00000000  00000+0  00000-0 0  9999
2 28096  97.1000 264.0000 0000000   0.0000 357.0000 15.48880433    16
CTC1_L_00545023-07
1 28097U 23020AO  26070.40840278  .00000000  00000+0  00000-0 0  9990
2 28097  97.1000 264.0000 0000000   0.0000  42.0000 15.48880433    18
CTC1_L_00545023-08
1 28098U 23219CM  26070.40840278  .00000000  00000+0  00000-0 0  9991
2 28098  97.1000 264.0000 0000000   0.0000  87.0000 15.48880433    18
CTC1_L_00545024-01
1 28099U 24076YW  26070.40840278  .00000000  00000+0  00000-0 0  9994
2 28099  97.1000 276.0000 0000000   0.0000 138.0000 15.48880433    19
CTC1_L_00545024-02
1 28100U 22694EZ  26070.40840278  .00000000  00000+0  00000-0 0  9991
2 28100  97.1000 276.0000 0000000   0.0000 183.0000 15.48880433    12
